start=new Date('2023-04-22T00:00:00.000Z').valueOf();
sats=[{"CLASSIFICATION_TYPE":"U","GP_ID":"230496508","TLE_LINE1":"1 47647U 21012AD  23111.51922135  .00006950  00000-0  48487-3 0  9994","SEMIMAJOR_AXIS":"6925.310","COUNTRY_CODE":"US","INCLINATION":"53.0526","ECCENTRICITY":"0.00015950","ARG_OF_PERICENTER":"90.2680","CENTER_NAME":"EARTH","LAUNCH_DATE":"2021-02-16","PERIOD":"95.591","MEAN_MOTION_DOT":"0.00006950","RCS_SIZE":"LARGE","OBJECT_TYPE":"PAYLOAD","OBJECT_NAME":"STARLINK-2030","MEAN_ELEMENT_THEORY":"SGP4","DECAY_DATE":null,"EPHEMERIS_TYPE":"0","REV_AT_EPOCH":"12125","OBJECT_ID":"2021-012AD","TLE_LINE2":"2 47647  53.0526 119.4789 0001595  90.2680 269.8492 15.06412519121250","PERIAPSIS":"546.071","RA_OF_ASC_NODE":"119.4789","MEAN_ANOMALY":"269.8492","REF_FRAME":"TEME","SITE":"AFETR","NORAD_CAT_ID":"47647","EPOCH":"2023-04-21T12:27:40.724640","ELEMENT_SET_NO":"999","BSTAR":"0.00048487000000","MEAN_MOTION":"15.06412519","APOAPSIS":"548.280","FILE":"3891529","MEAN_MOTION_DDOT":"0.0000000000000","TIME_SYSTEM":"UTC"},{"REV_AT_EPOCH":"12152","EPHEMERIS_TYPE":"0","MEAN_ELEMENT_THEORY":"SGP4","DECAY_DATE":null,"OBJECT_NAME":"STARLINK-2031","OBJECT_TYPE":"PAYLOAD","PERIAPSIS":"546.236","TLE_LINE2":"2 47648  53.0541  99.8178 0001334  90.5733 269.5409 15.06417445121522","OBJECT_ID":"2021-012AE","ARG_OF_PERICENTER":"90.5733","ECCENTRICITY":"0.00013340","INCLINATION":"53.0541","GP_ID":"230496249","TLE_LINE1":"1 47648U 21012AE  23111.44365446  .00006115  00000-0  42887-3 0  9994","SEMIMAJOR_AXIS":"6925.295","COUNTRY_CODE":"US","CLASSIFICATION_TYPE":"U","RCS_SIZE":"LARGE","MEAN_MOTION_DOT":"0.00006115","PERIOD":"95.591","LAUNCH_DATE":"2021-02-16","CENTER_NAME":"EARTH","MEAN_MOTION":"15.06417445","TIME_SYSTEM":"UTC","MEAN_MOTION_DDOT":"0.0000000000000","FILE":"3891529","APOAPSIS":"548.084","MEAN_ANOMALY":"269.5409","RA_OF_ASC_NODE":"99.8178","BSTAR":"0.00042887000000","ELEMENT_SET_NO":"999","EPOCH":"2023-04-21T10:38:51.745344","NORAD_CAT_ID":"47648","SITE":"AFETR","REF_FRAME":"TEME"},{"OBJECT_TYPE":"PAYLOAD","OBJECT_NAME":"STARLINK-2032","MEAN_ELEMENT_THEORY":"SGP4","DECAY_DATE":null,"EPHEMERIS_TYPE":"0","REV_AT_EPOCH":"12151","OBJECT_ID":"2021-012AF","TLE_LINE2":"2 47649  53.0519 100.0992 0001387 103.0281 257.0863 15.06428318121519","PERIAPSIS":"546.166","CLASSIFICATION_TYPE":"U","TLE_LINE1":"1 47649U 21012AF  23111.38098504  .00013267  00000-0  90716-3 0  9996","GP_ID":"230527903","SEMIMAJOR_AXIS":"6925.262","COUNTRY_CODE":"US","ARG_OF_PERICENTER":"103.0281","INCLINATION":"53.0519","ECCENTRICITY":"0.00013870","CENTER_NAME":"EARTH","LAUNCH_DATE":"2021-02-16","MEAN_MOTION_DOT":"0.00013267","PERIOD":"95.590","RCS_SIZE":"LARGE","MEAN_MOTION":"15.06428318","APOAPSIS":"548.087","FILE":"3891716","MEAN_MOTION_DDOT":"0.0000000000000","TIME_SYSTEM":"UTC","RA_OF_ASC_NODE":"100.0992","MEAN_ANOMALY":"257.0863","REF_FRAME":"TEME","SITE":"AFETR","NORAD_CAT_ID":"47649","EPOCH":"2023-04-21T09:08:37.107456","ELEMENT_SET_NO":"999","BSTAR":"0.00090716000000"},{"TLE_LINE2":"2 47650  53.0511  98.6813 0001483  58.0345 302.0788 15.06404411121542","PERIAPSIS":"546.173","OBJECT_ID":"2021-012AG","EPHEMERIS_TYPE":"0","REV_AT_EPOCH":"12154","OBJECT_TYPE":"PAYLOAD","OBJECT_NAME":"STARLINK-2033","MEAN_ELEMENT_THEORY":"SGP4","DECAY_DATE":null,"RCS_SIZE":"LARGE","LAUNCH_DATE":"2021-02-16","CENTER_NAME":"EARTH","MEAN_MOTION_DOT":"0.00009304","PERIOD":"95.592","ECCENTRICITY":"0.00014830","INCLINATION":"53.0511","ARG_OF_PERICENTER":"58.0345","CLASSIFICATION_TYPE":"U","TLE_LINE1":"1 47650U 21012AG  23111.69799336  .00009304  00000-0  64261-3 0  9996","COUNTRY_CODE":"US","GP_ID":"230526656","SEMIMAJOR_AXIS":"6925.335","TIME_SYSTEM":"UTC","FILE":"3891716","APOAPSIS":"548.227","MEAN_MOTION_DDOT":"0.0000000000000","MEAN_MOTION":"15.06404411","EPOCH":"2023-04-21T16:45:06.626304","NORAD_CAT_ID":"47650","BSTAR":"0.00064261000000","ELEMENT_SET_NO":"999","SITE":"AFETR","REF_FRAME":"TEME","MEAN_ANOMALY":"302.0788","RA_OF_ASC_NODE":"98.6813"},{"PERIAPSIS":"546.158","TLE_LINE2":"2 47651  53.0514 118.5513 0001572  91.1086 269.0083 15.06389078121286","OBJECT_ID":"2021-012AH","REV_AT_EPOCH":"12128","EPHEMERIS_TYPE":"0","MEAN_ELEMENT_THEORY":"SGP4","DECAY_DATE":null,"OBJECT_NAME":"STARLINK-2035","OBJECT_TYPE":"PAYLOAD","RCS_SIZE":"LARGE","PERIOD":"95.593","MEAN_MOTION_DOT":"0.00000556","LAUNCH_DATE":"2021-02-16","CENTER_NAME":"EARTH","INCLINATION":"53.0514","ECCENTRICITY":"0.00015720","ARG_OF_PERICENTER":"91.1086","GP_ID":"230526401","TLE_LINE1":"1 47651U 21012AH  23111.73670718  .00000556  00000-0  56228-4 0  9999","SEMIMAJOR_AXIS":"6925.382","COUNTRY_CODE":"US","CLASSIFICATION_TYPE":"U","TIME_SYSTEM":"UTC","MEAN_MOTION_DDOT":"0.0000000000000","APOAPSIS":"548.336","FILE":"3891716","MEAN_MOTION":"15.06389078","ELEMENT_SET_NO":"999","BSTAR":"0.00005622800000","NORAD_CAT_ID":"47651","EPOCH":"2023-04-21T17:40:51.500352","REF_FRAME":"TEME","SITE":"AFETR","MEAN_ANOMALY":"269.0083","RA_OF_ASC_NODE":"118.5513"},{"EPOCH":"2023-04-21T11:50:31.772256","NORAD_CAT_ID":"47652","BSTAR":"0.00064644000000","ELEMENT_SET_NO":"999","SITE":"AFETR","REF_FRAME":"TEME","MEAN_ANOMALY":"271.8089","RA_OF_ASC_NODE":"119.5981","TIME_SYSTEM":"UTC","FILE":"3891568","APOAPSIS":"548.200","MEAN_MOTION_DDOT":"0.0000000000000","MEAN_MOTION":"15.06405043","RCS_SIZE":"LARGE","LAUNCH_DATE":"2021-02-16","CENTER_NAME":"EARTH","PERIOD":"95.592","MEAN_MOTION_DOT":"0.00009362","ECCENTRICITY":"0.00014470","INCLINATION":"53.0520","ARG_OF_PERICENTER":"88.3066","CLASSIFICATION_TYPE":"U","TLE_LINE1":"1 47652U 21012AJ  23111.49342329  .00009362  00000-0  64644-3 0  9991","GP_ID":"230501898","COUNTRY_CODE":"US","SEMIMAJOR_AXIS":"6925.333","TLE_LINE2":"2 47652  53.0520 119.5981 0001447  88.3066 271.8089 15.06405043120727","PERIAPSIS":"546.196","OBJECT_ID":"2021-012AJ","EPHEMERIS_TYPE":"0","REV_AT_EPOCH":"12072","OBJECT_TYPE":"PAYLOAD","OBJECT_NAME":"STARLINK-2036","MEAN_ELEMENT_THEORY":"SGP4","DECAY_DATE":null},{"EPOCH":"2023-04-21T16:29:11.110560","NORAD_CAT_ID":"47653","BSTAR":"0.00010716000000","ELEMENT_SET_NO":"999","SITE":"AFETR","REF_FRAME":"TEME","MEAN_ANOMALY":"275.0505","RA_OF_ASC_NODE":"98.7270","TIME_SYSTEM":"UTC","FILE":"3891716","APOAPSIS":"548.263","MEAN_MOTION_DDOT":"0.0000000000000","MEAN_MOTION":"15.06395747","RCS_SIZE":"LARGE","CENTER_NAME":"EARTH","LAUNCH_DATE":"2021-02-16","PERIOD":"95.592","MEAN_MOTION_DOT":"0.00001315","INCLINATION":"53.0531","ARG_OF_PERICENTER":"85.0655","ECCENTRICITY":"0.00014960","CLASSIFICATION_TYPE":"U","GP_ID":"230527403","TLE_LINE1":"1 47653U 21012AK  23111.68693415  .00001315  00000-0  10716-3 0  9999","SEMIMAJOR_AXIS":"6925.362","COUNTRY_CODE":"US","TLE_LINE2":"2 47653  53.0531  98.7270 0001496  85.0655 275.0505 15.06395747121540","PERIAPSIS":"546.191","OBJECT_ID":"2021-012AK","EPHEMERIS_TYPE":"0","REV_AT_EPOCH":"12154","OBJECT_TYPE":"PAYLOAD","OBJECT_NAME":"STARLINK-2037","MEAN_ELEMENT_THEORY":"SGP4","DECAY_DATE":null},{"GP_ID":"230470784","TLE_LINE1":"1 47654U 21012AL  23111.49710015  .00009803  00000-0  67587-3 0  9993","SEMIMAJOR_AXIS":"6925.316","COUNTRY_CODE":"US","CLASSIFICATION_TYPE":"U","ECCENTRICITY":"0.00014450","INCLINATION":"53.0522","ARG_OF_PERICENTER":"89.9396","PERIOD":"95.591","MEAN_MOTION_DOT":"0.00009803","LAUNCH_DATE":"2021-02-16","CENTER_NAME":"EARTH","RCS_SIZE":"LARGE","MEAN_ELEMENT_THEORY":"SGP4","DECAY_DATE":null,"OBJECT_NAME":"STARLINK-2038","OBJECT_TYPE":"PAYLOAD","REV_AT_EPOCH":"12072","EPHEMERIS_TYPE":"0","OBJECT_ID":"2021-012AL","PERIAPSIS":"546.180","TLE_LINE2":"2 47654  53.0522 119.5777 0001445  89.9396 270.1759 15.06410673120726","RA_OF_ASC_NODE":"119.5777","MEAN_ANOMALY":"270.1759","REF_FRAME":"TEME","SITE":"AFETR","ELEMENT_SET_NO":"999","BSTAR":"0.00067587000000","NORAD_CAT_ID":"47654","EPOCH":"2023-04-21T11:55:49.452960","MEAN_MOTION":"15.06410673","MEAN_MOTION_DDOT":"0.0000000000000","APOAPSIS":"548.182","FILE":"3891371","TIME_SYSTEM":"UTC"},{"TIME_SYSTEM":"UTC","MEAN_MOTION_DDOT":"0.0000000000000","FILE":"3891716","APOAPSIS":"548.113","MEAN_MOTION":"15.06404217","BSTAR":"0.00017967000000","ELEMENT_SET_NO":"999","EPOCH":"2023-04-21T18:07:22.085472","NORAD_CAT_ID":"47655","SITE":"AFETR","REF_FRAME":"TEME","MEAN_ANOMALY":"274.9948","RA_OF_ASC_NODE":"118.4228","PERIAPSIS":"546.289","TLE_LINE2":"2 47655  53.0513 118.4228 0001317  85.1191 274.9948 15.06404217121286","OBJECT_ID":"2021-012AM","REV_AT_EPOCH":"12128","EPHEMERIS_TYPE":"0","DECAY_DATE":null,"MEAN_ELEMENT_THEORY":"SGP4","OBJECT_NAME":"STARLINK-2039","OBJECT_TYPE":"PAYLOAD","RCS_SIZE":"LARGE","PERIOD":"95.592","MEAN_MOTION_DOT":"0.00002396","LAUNCH_DATE":"2021-02-16","CENTER_NAME":"EARTH","ARG_OF_PERICENTER":"85.1191","ECCENTRICITY":"0.00013170","INCLINATION":"53.0513","TLE_LINE1":"1 47655U 21012AM  23111.75511673  .00002396  00000-0  17967-3 0  9999","GP_ID":"230526902","SEMIMAJOR_AXIS":"6925.336","COUNTRY_CODE":"US","CLASSIFICATION_TYPE":"U"},{"SITE":"AFETR","REF_FRAME":"TEME","BSTAR":"0.00053337000000","ELEMENT_SET_NO":"999","EPOCH":"2023-04-21T10:33:33.097824","NORAD_CAT_ID":"47656","RA_OF_ASC_NODE":"99.8373","MEAN_ANOMALY":"267.9909","MEAN_MOTION_DDOT":"0.0000000000000","FILE":"3891371","APOAPSIS":"548.143","TIME_SYSTEM":"UTC","MEAN_MOTION":"15.06417673","PERIOD":"95.591","MEAN_MOTION_DOT":"0.00007676","LAUNCH_DATE":"2021-02-16","CENTER_NAME":"EARTH","RCS_SIZE":"LARGE","TLE_LINE1":"1 47656U 21012AN  23111.43996641  .00007676  00000-0  53337-3 0  9994","SEMIMAJOR_AXIS":"6925.294","GP_ID":"230470786","COUNTRY_CODE":"US","CLASSIFICATION_TYPE":"U","ARG_OF_PERICENTER":"92.1243","ECCENTRICITY":"0.00014210","INCLINATION":"53.0523","OBJECT_ID":"2021-012AN","PERIAPSIS":"546.175","TLE_LINE2":"2 47656  53.0523  99.8373 0001421  92.1243 267.9909 15.06417673120999","MEAN_ELEMENT_THEORY":"SGP4","DECAY_DATE":null,"OBJECT_TYPE":"PAYLOAD","OBJECT_NAME":"STARLINK-2040","REV_AT_EPOCH":"12099","EPHEMERIS_TYPE":"0"}];
